{"type":"FeatureCollection","name":"poligonal","crs":{"type":"name","properties":{"name":"urn:ogc:def:crs:EPSG::31985"}},"features":[{"type":"Feature","properties":{},"geometry":{"type":"MultiPolygon","coordinates":[[[[239586.67295608358,9207899.11244841],[239611.13317602337,9207895.07949507],[239624.11499031336,9207894.793131521],[239645.78316563563,9207895.270404104],[239696.89905940247,9207898.372675903],[239710.1635830265,9207901.06871729],[239720.12020060734,9207872.660386391],[239731.00492359433,9207839.865466699],[239738.9477203552,9207809.710546438],[239742.37859162668,9207790.976183575],[239746.00683312365,9207758.78716927],[239749.2732689919,9207711.305500053],[239751.8105644229,9207669.272568198],[239753.61820664132,9207648.264834307],[239757.25091609347,9207619.39952136],[239761.70270358367,9207596.685287466],[239766.71400169784,9207580.463147176],[239778.31457278028,9207550.183690455],[239790.75870970532,9207522.698805355],[239806.85174861917,9207490.997457616],[239858.24930871627,9207396.48146023],[239886.0983129819,9207346.505849836],[239903.97520007796,9207313.116743246],[239915.76001789942,9207289.453577304],[239919.00807922936,9207282.162011053],[239919.00807922936,9207281.70094257],[239918.85062847365,9207281.251916341],[239916.39668205925,9207279.503479522],[239866.21238556714,9207257.929787489],[239825.44571178983,9207240.951666877],[239798.71270930988,9207228.539915727],[239739.00795152262,9207203.615548588],[239723.4761812984,9207197.549886843],[239691.64232503826,9207187.36672245],[239685.8161166535,9207186.233848596],[239661.29994568942,9207182.086376065],[239630.1094599471,9207179.779387474],[239619.51157339584,9207179.522986993],[239589.6828229749,9207182.25122636],[239551.46883670703,9207188.96197517],[239482.98117131548,9207203.991212852],[239452.5395259028,9207210.369462369],[239426.8475920175,9207214.65145135],[239411.72835790555,9207216.782797128],[239415.00993936515,9207220.836515399],[239448.83663376948,9207264.077411512],[239474.2871943214,9207297.510356031],[239546.08092279857,9207398.81146203],[239556.8434195719,9207408.881913558],[239571.35250613134,9207466.870532535],[239590.87295482476,9207559.485277494],[239592.1138635437,9207585.067088008],[239593.0206814536,9207603.919355083],[239594.78659001514,9207620.62389553],[239608.77067673195,9207653.22161303],[239614.8320385512,9207679.376150643],[239631.5843062563,9207796.188615628],[239622.7070361903,9207818.524972567],[239588.58204642034,9207890.187451085],[239586.67295608358,9207899.11244841]]]]}}],"properties":{"crs":"EPSG:31985","unit":"metre","parts":[{"area_m2":163665.91528320312,"perimeter_m":2067.29244834161}],"bounds":{"left":239411.72835790555,"bottom":9207179.522986993,"right":239919.00807922936,"top":9207901.06871729},"area_m2":163665.91528320312,"perimeter_m":2067.29244834161}}