{"type":"FeatureCollection","name":"corpos_hidricos","crs":{"type":"name","properties":{"name":"urn:ogc:def:crs:EPSG::31985"}},"features":[{"type":"Feature","properties":{},"geometry":{"type":"Polygon","coordinates":[[[239644.7566084047,9207253.4693409],[239644.36118274851,9207251.2791249],[239643.61505387822,9207249.6364629],[239643.0917579866,9207249.0889089],[239639.74176138378,9207246.6249159],[239637.77193193365,9207245.2560309],[239633.0111195,9207243.184142249],[239631.0946805,9207243.496905034],[239629.07102084983,9207243.3395919],[239627.729716908,9207245.529807901],[239625.90967935717,9207248.2675779],[239625.58205736135,9207252.374232901],[239625.9758868963,9207253.7431179],[239626.16669450002,9207254.794462292],[239626.2076117171,9207255.3857799],[239626.12556321555,9207256.480887901],[239625.9383932618,9207259.2186579],[239626.11901854732,9207260.8613199],[239626.45784045797,9207263.3253129],[239626.1206444516,9207264.4204209],[239625.87140856183,9207265.2417519],[239625.78411627322,9207266.3368599],[239625.77899267137,9207267.9795219],[239625.78489604688,9207268.253298901],[239625.4557685465,9207269.3484069],[239625.26877032657,9207271.2648459],[239625.0314871354,9207273.4550619],[239624.69257580396,9207274.2763929],[239624.22242806366,9207275.6452779],[239623.7027015,9207277.632514972],[239622.8876859395,9207279.4781559],[239622.3338165,9207280.66249058],[239621.7862625,9207281.794627743],[239620.7876569476,9207284.1323649],[239620.1436005,9207285.639359063],[239619.16433863554,9207287.9652429],[239618.1235912669,9207290.7030129],[239617.5608299154,9207292.0718979],[239616.8975250937,9207293.7145599],[239616.18662519183,9207295.3572219],[239615.39412795505,9207298.0949919],[239614.66806050003,9207300.365267437],[239613.57295250002,9207304.360518515],[239612.41056110387,9207308.2247409],[239610.90094015328,9207313.1527269],[239610.30247791077,9207315.6167199],[239609.58382827142,9207319.9971519],[239609.15427849136,9207323.830029901],[239608.51469103096,9207327.9366849],[239607.99723324657,9207330.4006779],[239607.44327442872,9207332.8646709],[239606.52990189428,9207338.066433901],[239605.78922081116,9207341.0779809],[239604.0887219104,9207345.1846359],[239599.57806372587,9207351.7552839],[239596.59877850002,9207354.476864394],[239591.67079250002,9207355.845445203],[239588.1116915,9207355.72236159],[239583.73125950003,9207355.717373306],[239579.07705050003,9207356.352708144],[239574.42284150003,9207358.279388795],[239570.66386569425,9207361.611255901],[239569.6410306514,9207363.2539179],[239568.69939958837,9207367.3605729],[239568.1729295309,9207370.6458969],[239567.38546512663,9207375.3001059],[239567.22978205697,9207378.8592069],[239569.3918256123,9207385.4298549],[239571.50988245005,9207389.5365099],[239574.1490645,9207395.276364192],[239575.5179495,9207398.185564619],[239595.76499881368,9207388.299533397],[239631.6422345,9207377.56816772],[239645.3310845,9207371.52334803],[239651.04085290802,9207369.0032349],[239663.40036650002,9207362.71189772],[239670.15980255167,9207358.325931901],[239672.80835988006,9207356.1357159],[239675.72033150002,9207352.44818561],[239676.6766720484,9207350.1126219],[239677.83620249285,9207345.4584129],[239678.3009628893,9207341.6255349],[239678.21233004527,9207338.6139879],[239676.74468396447,9207330.9482319],[239672.25168317248,9207315.6167199],[239670.2154413159,9207308.2247409],[239668.62402572876,9207304.1180859],[239666.94625923253,9207300.8327619],[239664.42926699022,9207296.4523299],[239663.56260173727,9207295.3572219],[239662.47277939162,9207293.9883369],[239659.5283059206,9207290.976789901],[239655.73461050002,9207286.52682926],[239652.9968405,9207282.481889455],[239650.80662450002,9207278.13156417],[239648.7440202587,9207273.4550619],[239646.73498878934,9207264.146643901],[239645.96420541324,9207258.9448809],[239645.47375956803,9207255.1120029],[239644.7566084047,9207253.4693409]]]}},{"type":"Feature","properties":{},"geometry":{"type":"Polygon","coordinates":[[[239838.3438695,9207241.143886039],[239865.24879410522,9207247.9938009],[239875.02998750002,9207258.777997896],[239882.3148560608,9207263.8728669],[239895.28948550002,9207273.55562524],[239909.51976115842,9207284.9536959],[239916.53996328177,9207292.8932289],[239916.77885051497,9207300.0114309],[239913.90632150002,9207304.313998507],[239909.25211250002,9207306.21940997],[239868.4546897914,9207298.8347875],[239855.2819664677,9207287.571154512],[239846.5001509186,9207284.134791907],[239848.60015028904,9207274.589340223],[239847.83651415433,9207265.998433707],[239839.62742570625,9207254.352982653],[239838.3438695,9207241.143886039]]]}},{"type":"Feature","properties":{},"geometry":{"type":"Polygon","coordinates":[[[239597.4936458824,9207633.1980399],[239596.9094806557,9207636.757140901],[239596.74750257254,9207641.4113499],[239599.61032550002,9207644.304586126],[239604.53831150001,9207644.71256778],[239609.4662975,9207644.357680025],[239621.23870850002,9207641.388972519],[239631.91601150003,9207639.314971779],[239645.87863850003,9207640.556229787],[239652.44928650002,9207642.522964552],[239663.63100821705,9207647.708220901],[239673.0299507027,9207653.4575379],[239679.5532095,9207657.124104643],[239686.94518850002,9207657.114569297],[239693.5158365,9207652.029273408],[239701.4553695,9207646.492519343],[239715.4179965,9207641.784476658],[239736.77260250002,9207640.879281616],[239750.46145250002,9207640.383156843],[239753.19922250003,9207639.394058209],[239757.80794685558,9207627.7224999],[239759.72694280866,9207617.5927509],[239761.5879301619,9207610.4745489],[239763.3406696177,9207600.618576901],[239764.803330944,9207596.2381449],[239765.19221987366,9207589.3937199],[239768.45952022812,9207583.0968489],[239769.73561803202,9207576.5262009],[239768.37399602233,9207568.3128909],[239765.5191875,9207564.846688986],[239762.78141750002,9207564.55113509],[239755.6632155,9207568.294631768],[239746.90235150003,9207573.329997322],[239736.22504850003,9207578.057782724],[239706.87378107305,9207587.4772809],[239688.31407350002,9207588.378262388],[239676.2678855,9207586.44028392],[239653.2706175,9207579.848467782],[239644.7383110575,9207575.1573159],[239637.2103704153,9207566.944005901],[239630.05874019154,9207553.8027099],[239623.2421205676,9207542.577852901],[239620.1436005,9207539.282050464],[239617.0550609877,9207539.8400829],[239614.94183750002,9207544.221359892],[239614.29000238245,9207546.9582849],[239613.17669880274,9207549.9698319],[239611.28127712943,9207555.7191489],[239609.73361085416,9207561.1946889],[239607.38523653545,9207574.6097619],[239606.78417717357,9207583.6444029],[239606.62909018376,9207589.667496901],[239606.3730605296,9207594.0479289],[239605.35964250003,9207598.77789173],[239603.1694265,9207604.97808327],[239601.43567716048,9207609.926994901],[239598.1996703952,9207617.8665279],[239597.32255316532,9207622.7945139],[239597.4936458824,9207633.1980399]]]}}]}